STARLINK-2739
1 18639C 21044B   21326.16075488 -.00018965  00000-0 -12704-2 0  3265
2 18639  53.0545 318.0034 0001864  63.9609  65.7238 15.06423106    15
